COSMOS 1892             
1 18421U 87088A   19350.05090583  .00000683  00000-0  32849-4 0  9992
2 18421  82.5009  96.0327 0014757 352.4219   7.6789 15.16989400756816
SL-14 R/B               
1 18749U 88001B   19349.76458522  .00000058  00000-0  40998-5 0  9999
2 18749  82.5129 170.7251 0018644 182.3305 188.4581 14.83204579704498
COSMOS 1933             
1 18958U 88020A   19349.59994279 -.00000083  00000-0 -81757-5 0  9995
2 18958  82.5288 304.0782 0013139  65.0668 295.1922 15.03660470707307
SL-3 R/B                
1 19046U 88032B   19349.94155615  .00000134  00000-0  14249-4 0  9995
2 19046  97.4216  14.0237 0039628 113.7571 246.7818 15.02657595709255
SL-16 R/B               
1 19120U 88039B   19349.87310130 -.00000143  00000-0 -45255-4 0  9995
2 19120  71.0137 198.5468 0023852 233.7816 126.1104 14.19201128635463
COSMOS 1953             
1 19210U 88050A   19349.92617424 -.00000089  00000-0 -81929-5 0  9998
2 19210  82.5169 228.9223 0014433  35.7783 324.4408 15.05873392715025
SL-8 R/B                
1 19257U 88053B   19349.93397321  .00000067  00000-0  31204-4 0  9998
2 19257  74.0487 340.2579 0020386   1.1201  16.7118 14.37451571649494
COSMOS 1975             
1 19573U 88093A   19349.83399007  .00000453  00000-0  29963-4 0  9993
2 19573  82.5196 182.9907 0015503  73.9672 286.3261 15.04788827696887
SL-14 R/B               
1 19574U 88093B   19349.81436891  .00000057  00000-0  39940-5 0  9992
2 19574  82.5318  12.6994 0021419 355.0903 178.0193 14.83314901684582
SL-16 R/B               
1 19650U 88102B   19349.79735665  .00000177  00000-0  11426-3 0  9996
2 19650  71.0000 258.1972 0016271 239.6502 120.3013 14.15785608604745
INTERCOSMOS 24          
1 20261U 89080A   19349.86585037 -.00000110  00000-0 -41247-4 0  9990
2 20261  82.6025 139.7434 1203086 153.6998 213.0680 12.56101127380825
SL-14 R/B               
1 20262U 89080C   19349.84609910  .00000017  00000-0  21572-5 0  9990
2 20262  82.5926 192.1846 1236791 338.1073  17.1240 12.48930456375946
DELTA 2 R/B(1)          
1 20303U 89085B   19349.76500545  .00000966  00000-0  33425-4 0  9998
2 20303  35.6269  90.3111 0096842 334.0962  25.4938 15.26808687640352
DELTA 1 R/B             
1 20323U 89089B   19349.89748512  .00000002  00000-0  93266-5 0  9997
2 20323  97.0656 160.5191 0073261  92.0464 268.9125 14.48326216566155
DELTA 2 R/B(1)          
1 20362U 89097B   19349.55793625  .00062737  32092-5  21257-3 0  9990
2 20362  35.6015 282.3463 0021221 270.6578 256.1308 15.88609992642774
ARIANE 40 R/B           
1 20443U 90005H   19349.78612798 -.00000013  00000-0  10603-4 0  9990
2 20443  98.6032  46.6644 0010754 167.5866 192.5588 14.38078034565832
DELTA 2 R/B(1)          
1 20453U 90008B   19349.90505851  .00000418  00000-0  25926-4 0  9991
2 20453  35.6255 264.2431 0282495 204.9194 153.7647 14.85219411583749
COSMOS 2058             
1 20465U 90010A   19350.01869566  .00000264  00000-0  19997-4 0  9997
2 20465  82.4902  90.8196 0016993 102.0804 258.2324 14.97944253621823
SL-14 R/B               
1 20466U 90010B   19349.94023001  .00000073  00000-0  63020-5 0  9999
2 20466  82.5043 239.4376 0019467 220.5622 139.4142 14.81371163591411
SL-14 R/B               
1 20511U 90018B   19349.81543706  .00000069  00000-0  60637-5 0  9999
2 20511  82.5222 185.1188 0017659   8.5411   1.9557 14.80027498606902
HST                     
1 20580U 90037B   19349.75450565  .00000359  00000-0  10845-4 0  9996
2 20580  28.4693 101.2069 0002505 264.3041 228.8357 15.09312066428035
SL-16 R/B               
1 20625U 90046B   19349.74053735  .00000268  00000-0  16367-3 0  9996
2 20625  71.0001  35.9054 0013853 171.5988 188.5369 14.14650102526491
COSMOS 2084             
1 20663U 90055A   19349.94935748 -.00000046  00000-0  13731-4 0  9991
2 20663  62.7957  64.1961 0047965 198.6173 161.3168 14.92037719595837
SL-6 R/B(2)             
1 20666U 90055D   19349.49702253 -.00000066  00000-0  11441-4 0  9995
2 20666  62.7868 342.5535 0025968 273.7463  86.0662 14.92293359597699
SL-8 R/B                
1 20775U 90078B   19349.84034709  .00001135  00000-0  52815-4 0  9991
2 20775  82.9271  18.8209 0576669  46.5653 318.2048 14.33857841479277
SL-8 R/B                
1 21088U 91006B   19349.78359700  .00000066  00000-0  51723-4 0  9994
2 21088  82.9439  62.5307 0021207 289.0952 208.9690 13.77130898450792
OKEAN-3                 
1 21397U 91039A   19349.52441087  .00000219  00000-0  18560-4 0  9997
2 21397  82.5209 352.4666 0019372  70.3958 289.9351 14.92868746524672
COSMOS 2151             
1 21422U 91042A   19350.04156554  .00000139  00000-0  11065-4 0  9995
2 21422  82.5010  98.5225 0015472 125.9468 234.3190 14.92090850544467
SL-14 R/B               
1 21423U 91042B   19349.86299944  .00000051  00000-0  36680-5 0  9999
2 21423  82.4934 189.4239 0018527 140.2795 219.9779 14.79778033516365
ERS-1                   
1 21574U 91050A   19349.85398038  .00000040  00000-0  27854-4 0  9998
2 21574  98.5737 298.4096 0033905 115.6480 244.8215 14.37721496488597
ARIANE 40 R/B           
1 21610U 91050F   19349.84577233  .00000007  00000-0  15998-4 0  9993
2 21610  98.4894  55.7067 0004363  95.1893  37.5122 14.40890490491110
INTERCOSMOS 25          
1 21819U 91086A   19349.94475042 -.00000419  00000-0 -85486-4 0  9997
2 21819  82.5946 236.7118 1516759 305.2358  41.5754 12.05083921222064
SL-8 R/B                
1 21876U 92008B   19349.76817451 -.00000019  00000-0 -34879-4 0  9995
2 21876  82.9253 159.6973 0034958  11.4125 359.7804 13.75643758396483
SL-8 R/B                
1 21938U 92020B   19349.90920512  .00000008  00000-0 -71316-5 0  9992
2 21938  82.9309  43.5867 0029646 166.0459   6.8739 13.75281607388302
COSMOS 2219             
1 22219U 92076A   19350.02710898  .00000019  00000-0  34981-4 0  9992
2 22219  71.0622  92.9711 0015915  72.9305 287.3559 14.13646982397071
SL-16 R/B               
1 22220U 92076B   19349.82423667 -.00000004  00000-0  21904-4 0  9991
2 22220  71.0007 300.2362 0014478 315.9904  78.0185 14.16450916399531
COSMOS 2221             
1 22236U 92080A   19349.88924382  .00000180  00000-0  16977-4 0  9997
2 22236  82.5086 278.0260 0015737 209.8925 150.1395 14.87880214441836
SL-16 R/B               
1 22285U 92093B   19349.79866914 -.00000135  00000-0 -45101-4 0  9994
2 22285  71.0214  99.9008 0004823 206.9596 153.1277 14.15035259391492
COSMOS 2228             
1 22286U 92094A   19349.93548636  .00000166  00000-0  15248-4 0  9991
2 22286  82.5212 233.9991 0020669 338.0906  21.9426 14.88094350437000
SL-16 R/B               
1 22566U 93016B   19349.60296425 -.00000014  00000-0  17331-4 0  9995
2 22566  71.0069 313.7707 0011001 198.7983 161.2735 14.14958693380198
COSMOS 2242             
1 22626U 93024A   19350.02986072  .00000171  00000-0  15905-4 0  9991
2 22626  82.5229 261.9544 0018450 338.2633  21.7799 14.87951185441738
SL-16 R/B               
1 22803U 93059B   19349.77869431  .00000075  00000-0  61319-4 0  9998
2 22803  70.9883 128.4472 0015006  75.5110 284.7678 14.16815916357404
ARIANE 40 R/B           
1 22830U 93061H   19349.83937135 -.00000019  00000-0  98790-5 0  9998
2 22830  98.7929  32.0509 0011660 139.5486 220.6565 14.31443123368661
COSMOS 2278             
1 23087U 94023A   19349.86728844 -.00000116  00000-0 -36322-4 0  9991
2 23087  71.0529 253.4701 0011204 263.4257  96.5590 14.13791214323101
SL-16 R/B               
1 23088U 94023B   19349.78222758 -.00000457  00000-0 -21245-3 0  9991
2 23088  70.9971 168.7313 0003295 197.8303 162.2704 14.14679307324198
SL-16 R/B               
1 23343U 94074B   19349.90138418  .00000011  00000-0  89325-5 0  9993
2 23343  98.0281  39.2405 0007551  34.7528 138.0436 14.76802989351171
SL-16 R/B               
1 23405U 94077B   19349.79489935 -.00000104  00000-0 -29078-4 0  9998
2 23405  70.9830  98.7232 0002886 328.9416  31.1535 14.15213193294239
ERS-2                   
1 23560U 95021A   19349.81526576  .00000752  00000-0  35858-4 0  9996
2 23560  98.5183 113.4203 0004682  86.1463 274.0305 15.22910903314049
ARIANE 40+ R/B          
1 23561U 95021B   19349.87185332  .00000022  00000-0  22557-4 0  9996
2 23561  98.7485  20.9961 0007955  83.4729  89.3186 14.37947915292048
SL-16 R/B               
1 23705U 95058B   19349.88541967 -.00000178  00000-0 -66898-4 0  9997
2 23705  71.0232 276.1986 0013356 337.7645  22.2897 14.15132662245862
SL-16 R/B               
1 24298U 96051B   19350.10533760  .00000126  00000-0  94426-4 0  9997
2 24298  70.8374 299.1705 0019263 263.6386  96.2540 14.12460203200588
ORBVIEW 2 (SEASTAR)     
1 24883U 97037A   19349.71778568  .00000044  00000-0  31850-4 0  9995
2 24883  98.5982  99.1235 0001308 304.1655  55.9405 14.33532087182244
SL-16 R/B               
1 25400U 98043G   19349.82528655 -.00000011  00000-0  13692-4 0  9990
2 25400  98.5907 284.3277 0010444 147.7267 212.4554 14.25446818114711
SL-16 R/B               
1 25407U 98045B   19349.86554429  .00000251  00000-0  15196-3 0  9996
2 25407  71.0122 285.5260 0010052 259.7926 100.2063 14.15793498104951
ISS (ZARYA)             
1 25544U 98067A   19350.80130787 -.00000331  00000-0  22668-5 0  9999
2 25544  51.6421 175.9784 0007469  43.1233 151.5853 15.50119641203583
SL-8 R/B                
1 25723U 99022C   19349.58223478  .00011833  00000-0  10444-3 0  9998
2 25723  48.4127 296.0770 0006625 154.9287 205.1987 15.69047762148904
CZ-4B R/B               
1 25732U 99025C   19349.91124137 -.00000032  00000-0  67767-5 0  9992
2 25732  98.9634  12.1883 0037612  17.8972  35.5043 14.17671040 65671
OKEAN-O                 
1 25860U 99039A   19349.79298739  .00000028  00000-0  11612-4 0  9996
2 25860  98.2234   0.4749 0001861  93.5084 266.6338 14.76636917 98269
SL-16 R/B               
1 25861U 99039B   19349.91500510  .00000002  00000-0  77976-5 0  9992
2 25861  98.2008 343.5090 0016380  34.6147 354.3105 14.78556121100358
